[{"OBJECT_NAME":"STARLINK-4515","OBJECT_ID":"2022-097K","EPOCH":"2026-03-09T10:23:06.023904","MEAN_MOTION":15.0883713,"ECCENTRICITY":0.00012214,"INCLINATION":53.2162,"RA_OF_ASC_NODE":125.2728,"ARG_OF_PERICENTER":96.2297,"MEAN_ANOMALY":263.8835,"EPHEMERIS_TYPE":0,"CLASSIFICATION_TYPE":"U","NORAD_CAT_ID":53397,"ELEMENT_SET_NO":999,"REV_AT_EPOCH":19847,"BSTAR":-1.2077157e-5,"MEAN_MOTION_DOT":-4.8e-6,"MEAN_MOTION_DDOT":0},{"OBJECT_NAME":"YUNYAO-1 44","OBJECT_ID":"2025-059B","EPOCH":"2026-03-09T23:37:33.233088","MEAN_MOTION":15.10344945,"ECCENTRICITY":0.00180831,"INCLINATION":97.6069,"RA_OF_ASC_NODE":250.8958,"ARG_OF_PERICENTER":135.5449,"MEAN_ANOMALY":224.7236,"EPHEMERIS_TYPE":0,"CLASSIFICATION_TYPE":"U","NORAD_CAT_ID":63345,"ELEMENT_SET_NO":999,"REV_AT_EPOCH":5332,"BSTAR":0.0003556422,"MEAN_MOTION_DOT":5.791e-5,"MEAN_MOTION_DDOT":0}]
